sat_config_name,tle_name,norad_id,horizons_id,epoch_tle,t_obs,delta_t_min,incl_deg,raan_deg,ecc,argp_deg,M_deg,mean_motion_rev_per_day,x_sgp4,y_sgp4,z_sgp4,vx_sgp4,vy_sgp4,vz_sgp4,x_true,y_true,z_true,vx_true,vy_true,vz_true,err_x,err_y,err_z,err_vx,err_vy,err_vz,err_norm,horizons_ok,line1,line2
CHANDRA,CXO,25867,-151,2025-11-29T09:28:09.054336+00:00,2025-11-29T02:58:09.054336+00:00,-390.0,52.7584,123.0489,0.8164697,310.7158,0.2585,0.37803381,32273.796717246292,-64489.958306439315,10038.787918737593,-0.04706814851962689,2.0228461886747033,-1.3861591636852044,32268.057816345587,-64481.40620549175,10036.94060393671,-0.04778084743948052,2.023493731102258,-1.3863964146428884,5.73890090070563,-8.552100947563304,1.847314800883396,0.0007126989198536354,-0.0006475424275547148,0.00023725095768400983,10.463555138622624,True,1 25867U 99040B   25333.39454924  .00000722  00000+0  00000+0 0  9995,2 25867  52.7584 123.0489 8164697 310.7158   0.2585  0.37803381 16565
CHANDRA,CXO,25867,-151,2025-11-29T09:28:09.054336+00:00,2025-11-29T03:03:09.054336+00:00,-385.0,52.7584,123.0489,0.8164697,310.7158,0.2585,0.37803381,32258.065847266294,-63879.751537840035,9622.210054295216,-0.057193138894292936,2.042992409188147,-1.3892459446288379,32252.211377845157,-63871.34462433491,9620.55744902122,-0.05790338047504462,2.0436350964043077,-1.389482134034516,5.854469421137765,-8.406913505124976,1.6526052739955048,0.0007102415807516832,-0.0006426872161608976,0.0002361894056781555,10.376999136423189,True,1 25867U 99040B   25333.39454924  .00000722  00000+0  00000+0 0  9995,2 25867  52.7584 123.0489 8164697 310.7158   0.2585  0.37803381 16565
CHANDRA,CXO,25867,-151,2025-11-29T09:28:09.054336+00:00,2025-11-29T03:08:09.054336+00:00,-380.0,52.7584,123.0489,0.8164697,310.7158,0.2585,0.37803381,32239.25901327932,-63263.44998799239,9204.713634562555,-0.06757072586608756,2.0634547962939638,-1.392277128397241,32233.29054256244,-63255.193536698556,9203.256873217002,-0.06827838393683175,2.0640924994995653,-1.3925122882499346,5.968470716878073,-8.25645129383338,1.4567613455528772,0.0007076580707441882,-0.0006377032056015253,0.0002351598526935117,10.291442283935277,True,1 25867U 99040B   25333.39454924  .00000722  00000+0  00000+0 0  9995,2 25867  52.7584 123.0489 8164697 310.7158   0.2585  0.37803381 16565
CHANDRA,CXO,25867,-151,2025-11-29T09:28:09.054336+00:00,2025-11-29T03:13:09.054336+00:00,-375.0,52.7584,123.0489,0.8164697,310.7158,0.2585,0.37803381,32217.298988355346,-62640.95735844955,8786.315938921187,-0.07821040478263706,2.08424260344983,-1.3952487544488834,32211.218152282392,-62632.85658706156,8785.056021202045,-0.07891534984605993,2.084875196158741,-1.395482921108903,6.080836072953389,-8.100771387995337,1.2599177191423223,0.0007049450634228627,-0.0006325927089112504,0.00023416666001963016,10.207176744119986,True,1 25867U 99040B   25333.39454924  .00000722  00000+0  00000+0 0  9995,2 25867  52.7584 123.0489 8164697 310.7158   0.2585  0.37803381 16565
CHANDRA,CXO,25867,-151,2025-11-29T09:28:09.054336+00:00,2025-11-29T03:18:09.054336+00:00,-370.0,52.7584,123.0489,0.8164697,310.7158,0.2585,0.37803381,32192.105623133888,-62012.1745169474,8367.0354763414,-0.08912215769686896,2.105365458589745,-1.3981565882619367,32185.91414082225,-62004.23492085395,8365.973489072521,-0.0898242509083503,2.105992805463287,-1.398389801095871,6.191482311638538,-7.939596093448927,1.0619872688785108,0.0007020932114813472,-0.000627346873541601,0.00023321283393440417,10.124201514277676,True,1 25867U 99040B   25333.39454924  .00000722  00000+0  00000+0 0  9995,2 25867  52.7584 123.0489 8164697 310.7158   0.2585  0.37803381 16565
CHANDRA,CXO,25867,-151,2025-11-29T09:28:09.054336+00:00,2025-11-29T03:23:09.054336+00:00,-365.0,52.7584,123.0489,0.8164697,310.7158,0.2585,0.37803381,32163.5956950525,-61376.99938216354,7946.892070821212,-0.10031648490111054,2.1268333830336794,-1.4009960997768316,32157.295363809666,-61369.226487510095,7946.029017581786,-0.10101558191500934,2.1274553480899314,-1.4012284026175987,6.300331242833636,-7.77289465344802,0.863053239425426,0.0006990970138987945,-0.0006219650562520052,0.00023230284076714014,10.042754898786944,True,1 25867U 99040B   25333.39454924  .00000722  00000+0  00000+0 0  9995,2 25867  52.7584 123.0489 8164697 310.7158   0.2585  0.37803381 16565
CHANDRA,CXO,25867,-151,2025-11-29T09:28:09.054336+00:00,2025-11-29T03:28:09.054336+00:00,-360.0,52.7584,123.0489,0.8164697,310.7158,0.2585,0.37803381,32131.6827477441,-60735.3268026372,7525.906953586231,-0.11180443893077958,2.1486568114956306,-1.4037624398785218,32125.275445227566,-60727.72616694214,7525.243752517146,-0.11250038958872965,2.149273258178663,-1.403993881302689,6.407302516534401,-7.600635695060191,0.6632010690846073,0.0006959506579500702,-0.0006164466830322901,0.00023144142416731128,9.96308306526881,True,1 25867U 99040B   25333.39454924  .00000722  00000+0  00000+0 0  9995,2 25867  52.7584 123.0489 8164697 310.7158   0.2585  0.37803381 16565
CHANDRA,CXO,25867,-151,2025-11-29T09:28:09.054336+00:00,2025-11-29T03:33:09.054336+00:00,-355.0,52.7584,123.0489,0.8164697,310.7158,0.2585,0.37803381,32096.276919827815,-60087.048429508686,7104.10286267045,-0.12359766126426769,2.1708466132566633,-1.4064504147143602,32089.764621264698,-60079.62590292643,7103.640512985688,-0.12429030448043586,2.1714573955724057,-1.4066810472878146,6.512298563116929,-7.42252658225334,0.46234968476255744,0.0006926432161681734,-0.0006107823157424086,0.00023063257345445898,9.885226384379484,True,1 25867U 99040B   25333.39454924  .00000722  00000+0  00000+0 0  9995,2 25867  52.7584 123.0489 8164697 310.7158   0.2585  0.37803381 16565
CHANDRA,CXO,25867,-151,2025-11-29T09:28:09.054336+00:00,2025-11-29T03:38:09.054336+00:00,-350.0,52.7584,123.0489,0.8164697,310.7158,0.2585,0.37803381,32057.28476224144,-59432.0525827205,6681.504150558562,-0.13570842196922278,2.193414114572868,-1.4090544576192483,32050.66952671443,-59424.81396574411,6681.243504078754,-0.13639759145166647,2.1940190887868116,-1.4092843397234205,6.615235527009645,-7.238616976384947,0.26064647980820155,0.0006891694824436856,-0.0006049742139437875,0.00022988210417218546,9.809528704074184,True,1 25867U 99040B   25333.39454924  .00000722  00000+0  00000+0 0  9995,2 25867  52.7584 123.0489 8164697 310.7158   0.2585  0.37803381 16565
CHANDRA,CXO,25867,-151,2025-11-29T09:28:09.054336+00:00,2025-11-29T03:43:09.054336+00:00,-345.0,52.7584,123.0489,0.8164697,310.7158,0.2585,0.37803381,32014.609043208577,-58770.22411029039,6258.136900648247,-0.1481496625728523,2.216371122391165,-1.4115685983925697,32007.893038373062,-58763.175507073174,6258.078885505532,-0.14883517984904454,2.2169701349218123,-1.411797793203456,6.716004835514468,-7.048603217219352,0.058015142715703405,0.0006855172761922323,-0.0005990125306474248,0.0002291948108863462,9.736061525135975,True,1 25867U 99040B   25333.39454924  .00000722  00000+0  00000+0 0  9995,2 25867  52.7584 123.0489 8164697 310.7158   0.2585  0.37803381 16565
CHANDRA,CXO,25867,-151,2025-11-29T09:28:09.054336+00:00,2025-11-29T03:48:09.054336+00:00,-340.0,52.7584,123.0489,0.8164697,310.7158,0.2585,0.37803381,31968.148539800884,-58101.44424026492,5834.029053369034,-0.16093504246207668,2.23972994944914,-1.4139864296405087,31961.334024901833,-58094.591709319204,5834.174444227189,-0.16161672285619488,2.24032284897511,-1.4142150069337989,6.814514899051574,-6.852530945718172,-0.14539085815522412,0.0006816803941182004,-0.0005928995259703029,0.0002285772932901775,9.665191781493846,True,1 25867U 99040B   25333.39454924  .00000722  00000+0  00000+0 0  9995,2 25867  52.7584 123.0489 8164697 310.7158   0.2585  0.37803381 16565
CHANDRA,CXO,25867,-151,2025-11-29T09:28:09.054336+00:00,2025-11-29T03:53:09.054336+00:00,-335.0,52.7584,123.0489,0.8164697,310.7158,0.2585,0.37803381,31917.797815007994,-57425.59042491523,5409.210542884686,-0.17407898915447034,2.263503440837698,-1.4163010698622103,31910.887170198937,-57418.94034023973,5409.560185138408,-0.17475663435395264,2.2640900657463745,-1.4165291051549456,6.910644809056976,-6.650084675500693,-0.34964225372186775,0.0006776451994822963,-0.0005866249086765585,0.00022803529273529577,9.597024933481364,True,1 25867U 99040B   25333.39454924  .00000722  00000+0  00000+0 0  9995,2 25867  52.7584 123.0489 8164697 310.7158   0.2585  0.37803381 16565
CHANDRA,CXO,25867,-151,2025-11-29T09:28:09.054336+00:00,2025-11-29T03:58:09.054336+00:00,-330.0,52.7584,123.0489,0.8164697,310.7158,0.2585,0.37803381,31863.44697907864,-56742.53617673295,4983.713445411953,-0.18759675281685614,2.2877050021077827,-1.4185051229184766,31856.442684997048,-56736.094870547895,4984.268023625747,-0.18827015713498801,2.2882851930380843,-1.4187326992334832,7.00429408159107,-6.4413061850573285,-0.5545782137942297,0.0006734043181318705,-0.000580190930301594,0.00022757631500658349,9.531952472934634,True,1 25867U 99040B   25333.39454924  .00000722  00000+0  00000+0 0  9995,2 25867  52.7584 123.0489 8164697 310.7158   0.2585  0.37803381 16565
CHANDRA,CXO,25867,-151,2025-11-29T09:28:09.054336+00:00,2025-11-29T04:03:09.054336+00:00,-325.0,52.7584,123.0489,0.8164697,310.7158,0.2585,0.37803381,31804.981433826622,-56052.15089573485,4557.5721403006,-0.201504465452338,2.312348629003983,-1.4205906334761593,31797.88610582284,-56045.92502770882,4558.332402769141,-0.20217340789705818,2.312922215854636,-1.4208178406851697,7.0953280037829245,-6.225868026027456,-0.7602624685405317,0.000668942444720183,-0.0005735868506526742,0.0002272072090103716,9.470116745840494,True,1 25867U 99040B   25333.39454924  .00000722  00000+0  00000+0 0  9995,2 25867  52.7584 123.0489 8164697 310.7158   0.2585  0.37803381 16565
